IRIDIUM 57 [-]          
1 25273U 98019B   23247.56643064  .00000394  00000+0  13175-3 0  9993
2 25273  86.3926  58.1060 0002111  90.4335 269.7103 14.34883830331315
IRIDIUM 63 [-]          
1 25286U 98021B   23247.55467743  .00000465  00000+0  15530-3 0  9993
2 25286  86.4045 355.0637 0002061  97.9261 262.2169 14.35393418330335
IRIDIUM 69 [-]          
1 25319U 98026A   23247.27529198  .00000797  00000+0  24940-3 0  9990
2 25319  86.4035  10.3827 0003322  51.7648 308.3849 14.39540151329237
IRIDIUM 71 [-]          
1 25320U 98026B   23247.27070708  .00000622  00000+0  19175-3 0  9991
2 25320  86.4031   5.2306 0004265  84.9453 275.2233 14.39885255329741
IRIDIUM 73 [-]          
1 25344U 98032C   23247.48095779  .00000581  00000+0  14493-3 0  9994
2 25344  86.4448 323.0684 0002644  79.9768 280.1735 14.50003906336075
IRIDIUM 82 [-]          
1 25467U 98051A   23247.47071159  .00012018  00000+0  72759-3 0  9993
2 25467  86.3918  60.4123 0149374 186.6995 173.2247 15.01510934325341
IRIDIUM 2 [-]           
1 25527U 98066A   23247.13306141  .00026758  00000+0  69249-3 0  9997
2 25527  85.5197 123.6600 0006284  21.1366 339.0145 15.38917513363296
